{
    "satellites": [
        {
            "name": "starlink361",
            "title": "Starlink-361 (G10-41) (new)",
            "tle": [
                "1 70024C 26041AE  26063.10881944  .00108150  00000+0  13469-3 0   630",
                "2 70024  53.1619  91.0070 0000834  95.4458 254.2212 16.06885819    18"
            ],
            "stdMag": 5,
            "noradId": "70024",
            "tleUrl": "http://celestrak.org/NORAD/elements/supplemental/sup-gp.php?FILE=starlink&FORMAT=tle",
            "launchDate": "2026-03-02T02:56:40.000Z",
            "active": true,
            "batch": [
                {
                    "noradId": "70024",
                    "tle": [
                        "1 70024C 26041AE  26063.10881944  .00108150  00000+0  13469-3 0   630",
                        "2 70024  53.1619  91.0070 0000834  95.4458 254.2212 16.06885819    18"
                    ]
                },
                {
                    "noradId": "70022",
                    "tle": [
                        "1 70022C 26041AC  26063.10881944  .00057952  00000+0  72576-4 0   636",
                        "2 70022  53.1619  91.0072 0000412  90.0477 259.5086 16.06848177    15"
                    ]
                },
                {
                    "noradId": "70021",
                    "tle": [
                        "1 70021C 26041AB  26063.10881944  .00026678  00000+0  33591-4 0   630",
                        "2 70021  53.1620  91.0074 0000445  90.8975 258.5412 16.06793579    12"
                    ]
                },
                {
                    "noradId": "70023",
                    "tle": [
                        "1 70023C 26041AD  26063.10534722  .00018491  00000+0  23401-4 0   634",
                        "2 70023  53.1620  91.0257 0000666  81.8394 247.3671 16.06720749    19"
                    ]
                },
                {
                    "noradId": "70020",
                    "tle": [
                        "1 70020C 26041AA  26063.11298611 -.00018204  00000+0 -23161-4 0   633",
                        "2 70020  53.1619  90.9864 0000806  91.4303 281.8669 16.06671966    15"
                    ]
                },
                {
                    "noradId": "70019",
                    "tle": [
                        "1 70019C 26041Z   26063.10812500 -.00055567  00000+0 -71087-4 0   632",
                        "2 70019  53.1619  91.0119 0001034  88.3404 256.7148 16.06621540    15"
                    ]
                },
                {
                    "noradId": "70018",
                    "tle": [
                        "1 70018C 26041Y   26063.10673611 -.00092473  00000+0 -11894-3 0   635",
                        "2 70018  53.1619  91.0195 0001189  89.7043 247.1976 16.06572463    15"
                    ]
                },
                {
                    "noradId": "70017",
                    "tle": [
                        "1 70017C 26041X   26063.10465278 -.00130110  00000+0 -16823-3 0   630",
                        "2 70017  53.1619  91.0305 0001082  90.3193 234.4069 16.06525632    11"
                    ]
                },
                {
                    "noradId": "70016",
                    "tle": [
                        "1 70016C 26041W   26063.10395833 -.00153100  00000+0 -19899-3 0   638",
                        "2 70016  53.1619  91.0342 0001250  88.7366 231.8464 16.06465346    16"
                    ]
                },
                {
                    "noradId": "70015",
                    "tle": [
                        "1 70015C 26041V   26063.10465278 -.00156300  00000+0 -20416-3 0   630",
                        "2 70015  53.1619  91.0310 0001317  89.3565 235.1070 16.06388120    16"
                    ]
                },
                {
                    "noradId": "70014",
                    "tle": [
                        "1 70014C 26041U   26063.10465278 -.00206070  00000+0 -27060-3 0   631",
                        "2 70014  53.1620  91.0312 0001344  89.3707 234.9755 16.06352996    16"
                    ]
                },
                {
                    "noradId": "70013",
                    "tle": [
                        "1 70013C 26041T   26063.10465278 -.00220160  00000+0 -29021-3 0   635",
                        "2 70013  53.1620  91.0314 0001224  90.6184 233.5214 16.06306064    18"
                    ]
                },
                {
                    "noradId": "70012",
                    "tle": [
                        "1 70012C 26041S   26063.10465278 -.00244840  00000+0 -32440-3 0   634",
                        "2 70012  53.1620  91.0317 0001333  88.8750 235.1379 16.06247786    14"
                    ]
                },
                {
                    "noradId": "70011",
                    "tle": [
                        "1 70011C 26041R   26063.10881944 -.00286810  00000+0 -38401-3 0   631",
                        "2 70011  53.1620  91.0103 0001227  86.7956 261.0712 16.06121686    12"
                    ]
                },
                {
                    "noradId": "70010",
                    "tle": [
                        "1 70010C 26041Q   26063.10881944 -.00262310  00000+0 -34939-3 0   631",
                        "2 70010  53.1620  91.0102 0001194  86.6210 261.3719 16.06180583    16"
                    ]
                },
                {
                    "noradId": "70009",
                    "tle": [
                        "1 70009C 26041P   26063.11229167 -.00292740  00000+0 -39404-3 0   635",
                        "2 70009  53.1620  90.9926 0001463  93.5712 274.2586 16.06041017    12"
                    ]
                },
                {
                    "noradId": "70008",
                    "tle": [
                        "1 70008C 26041N   26063.11229167 -.00329630  00000+0 -44611-3 0   639",
                        "2 70008  53.1619  90.9928 0001381  85.6737 282.0451 16.05990888    15"
                    ]
                },
                {
                    "noradId": "70007",
                    "tle": [
                        "1 70007C 26041M   26063.11229167 -.00356120  00000+0 -48444-3 0   630",
                        "2 70007  53.1620  90.9930 0001558  94.5824 273.0088 16.05933633    12"
                    ]
                },
                {
                    "noradId": "70005",
                    "tle": [
                        "1 70005C 26041K   26063.11229167 -.00402700  00000+0 -55079-3 0   636",
                        "2 70005  53.1620  90.9932 0001480  86.5024 280.9815 16.05892594    14"
                    ]
                },
                {
                    "noradId": "70006",
                    "tle": [
                        "1 70006C 26041L   26063.11159722 -.00443950  00000+0 -61043-3 0   636",
                        "2 70006  53.1620  90.9969 0001317  77.4444 285.9024 16.05848980    16"
                    ]
                },
                {
                    "noradId": "70004",
                    "tle": [
                        "1 70004C 26041J   26063.11159722 -.00487480  00000+0 -67393-3 0   634",
                        "2 70004  53.1620  90.9971 0001353  77.7009 285.5381 16.05804517    17"
                    ]
                },
                {
                    "noradId": "70003",
                    "tle": [
                        "1 70003C 26041H   26063.11020833 -.00534950  00000+0 -74687-3 0   632",
                        "2 70003  53.1620  91.0050 0000747  64.3181 290.6095 16.05693612    16"
                    ]
                },
                {
                    "noradId": "71899",
                    "tle": [
                        "1 71899C 26041E   26063.11020833 -.00558010  00000+0 -78297-3 0   630",
                        "2 71899  53.1620  91.0051 0001000  75.5844 279.2152 16.05634830    18"
                    ]
                },
                {
                    "noradId": "70002",
                    "tle": [
                        "1 70002C 26041G   26063.11020833 -.00504490  00000+0 -70064-3 0   632",
                        "2 70002  53.1620  91.0046 0001095  78.3730 276.6771 16.05747964    17"
                    ]
                },
                {
                    "noradId": "70001",
                    "tle": [
                        "1 70001C 26041F   26063.10395833 -.00561420  00000+0 -79138-3 0   632",
                        "2 70001  53.1619  91.0380 0000675  70.2473 248.2655 16.05564003    10"
                    ]
                },
                {
                    "noradId": "71898",
                    "tle": [
                        "1 71898C 26041D   26063.10395833 -.00614120  00000+0 -87011-3 0   632",
                        "2 71898  53.1620  91.0380 0000722  71.2843 247.1101 16.05533392    13"
                    ]
                },
                {
                    "noradId": "71897",
                    "tle": [
                        "1 71897C 26041C   26063.11298611 -.00635560  00000+0 -90898-3 0   636",
                        "2 71897  53.1619  90.9920 0000456  60.1877 310.0711 16.05401873    11"
                    ]
                },
                {
                    "noradId": "71896",
                    "tle": [
                        "1 71896C 26041B   26063.10395833 -.00630370  00000+0 -89640-3 0   635",
                        "2 71896  53.1619  91.0384 0000831 103.4925 214.6902 16.05490025    16"
                    ]
                },
                {
                    "noradId": "71895",
                    "tle": [
                        "1 71895C 26041A   26063.10395833 -.00674210  00000+0 -96856-3 0   632",
                        "2 71895  53.1620  91.0390 0000950 103.6715 214.2648 16.05367257    18"
                    ]
                }
            ]
        }
    ],
    "config": {}
}